OBJECT_NAME,OBJECT_ID,EPOCH,MEAN_MOTION,ECCENTRICITY,INCLINATION,RA_OF_ASC_NODE,ARG_OF_PERICENTER,MEAN_ANOMALY,EPHEMERIS_TYPE,CLASSIFICATION_TYPE,NORAD_CAT_ID,ELEMENT_SET_NO,REV_AT_EPOCH,BSTAR,MEAN_MOTION_DOT,MEAN_MOTION_DDOT
STARLINK-37593,2026-123C,2026-06-29T10:29:12.779808,15.81033743,.0002433,53.1529,180.4168,149.3191,210.7975,0,U,69355,999,397,.16002E-2,.329943E-2,0
STARLINK-37597,2026-123D,2026-06-29T12:00:02.998944,15.75236843,.0001069,53.1586,180.3270,81.8229,168.3355,0,U,69356,999,518,-.62842E-4,-.10259E-3,0
STARLINK-37598,2026-123E,2026-06-29T07:21:47.177856,15.80889165,.0001659,53.1569,181.0262,35.4835,324.6297,0,U,69357,999,395,.12157E-2,.246396E-2,0
STARLINK-37602,2026-123F,2026-06-29T07:01:15.285792,15.75245365,.0000918,53.1575,181.6711,103.5245,256.5877,0,U,69358,999,394,.10029E-2,.156001E-2,0
STARLINK-37600,2026-123G,2026-06-29T06:55:11.209152,15.75243479,.0001388,53.1568,181.6415,53.8291,306.2858,0,U,69359,999,394,.11259E-2,.175609E-2,0
STARLINK-37599,2026-123H,2026-06-29T11:39:56.988000,15.81111927,.0002093,53.1564,180.0052,169.4499,190.6568,0,U,69360,999,398,.16804E-2,.348518E-2,0
STARLINK-37039,2026-123J,2026-06-29T12:27:29.229120,15.75271754,.0001175,53.1574,180.2251,122.7279,237.3855,0,U,69361,999,398,.91335E-3,.141941E-2,0
STARLINK-37040,2026-123K,2026-06-29T06:46:09.347232,15.80904030,.0001429,53.1562,180.8586,38.2959,321.8165,0,U,69362,999,395,.11634E-2,.235627E-2,0
STARLINK-37582,2026-123L,2026-06-29T06:42:06.700608,15.75247593,.0000939,53.1556,181.5790,107.6207,252.4916,0,U,69363,999,394,.12825E-2,.200764E-2,0
STARLINK-37309,2026-123M,2026-06-29T07:01:34.652352,15.75338601,.0001124,53.1588,180.9296,162.7187,197.3872,0,U,69364,999,395,.14171E-2,.223382E-2,0
STARLINK-37436,2026-123N,2026-06-29T06:27:01.749600,15.80880257,.0001045,53.1564,180.7689,91.9991,268.1151,0,U,69365,999,395,.11717E-2,.23709E-2,0
STARLINK-37581,2026-123P,2026-06-29T12:36:35.299584,15.80939694,.0001292,53.1559,179.5253,63.3276,296.7879,0,U,69366,999,399,.10874E-2,.220152E-2,0
STARLINK-37683,2026-123Q,2026-06-29T07:27:16.388640,15.75221203,.0001261,53.1567,181.0467,59.0136,301.1008,0,U,69367,999,395,.1072E-2,.166833E-2,0
STARLINK-37687,2026-123R,2026-06-29T06:20:36.273408,15.80937690,.0000813,53.1568,180.7391,56.0182,304.0918,0,U,69368,999,395,.1694E-2,.348533E-2,0
STARLINK-37631,2026-123S,2026-06-29T12:00:02.998944,15.75212798,.0000982,53.1587,179.6889,69.9405,129.2684,0,U,69369,999,519,.23481E-3,.35463E-3,0
STARLINK-37673,2026-123T,2026-06-29T05:36:45.489312,15.75277810,.0000749,53.1587,181.2748,81.6846,278.4259,0,U,69370,999,394,.14773E-2,.232542E-2,0
STARLINK-37645,2026-123U,2026-06-29T06:48:30.245760,15.75341667,.0001201,53.1589,180.8677,165.0490,195.0566,0,U,69371,999,395,.1414E-2,.222908E-2,0
STARLINK-37688,2026-123V,2026-06-29T12:00:02.998944,15.75223155,.0001083,53.1592,179.6300,78.6264,148.1619,0,U,69372,999,519,.12348E-3,.18316E-3,0
STARLINK-37685,2026-123W,2026-06-29T06:19:22.875744,15.80952801,.0001137,53.1567,180.7315,119.9723,240.1413,0,U,69373,999,395,.7984E-3,.160429E-2,0
STARLINK-37632,2026-123X,2026-06-29T06:18:19.509984,15.80908725,.0001574,53.1558,180.7262,33.1082,327.0039,0,U,69374,999,395,.14423E-2,.294376E-2,0
STARLINK-37454,2026-123Y,2026-06-29T06:16:44.442336,15.80864781,.0001223,53.1564,180.7186,89.6777,270.4386,0,U,69375,999,395,.15973E-2,.326652E-2,0
STARLINK-37485,2026-123Z,2026-06-29T06:41:29.833728,15.75456541,.0003291,53.1581,180.8335,183.1496,176.9504,0,U,69376,999,395,.18812E-2,.301089E-2,0
STARLINK-37439,2026-123AA,2026-06-29T06:05:25.423872,15.80930346,.0000983,53.1570,180.6648,84.7478,275.3657,0,U,69377,999,395,.76866E-3,.154153E-2,0
STARLINK-37376,2026-123AB,2026-06-29T13:13:05.975040,15.75284973,.0000982,53.1590,179.6930,96.4324,263.6808,0,U,69378,999,399,.82461E-3,.127948E-2,0
STARLINK-37383,2026-123AC,2026-06-29T12:00:02.998944,15.75240108,.0001073,53.1587,179.5249,78.2456,198.2201,0,U,69379,999,528,-.97212E-4,-.15514E-3,0
STARLINK-37411,2026-123AD,2026-06-29T12:11:31.759872,15.80955458,.0001327,53.1568,179.4054,42.8316,317.2809,0,U,69380,999,399,.13454E-2,.274504E-2,0
STARLINK-37427,2026-123AE,2026-06-29T06:01:27.679584,15.80940418,.0001015,53.1567,180.6446,111.4157,248.6974,0,U,69381,999,395,.10272E-2,.207628E-2,0
QIANFAN-165,2026-124A,2026-06-29T13:15:56.537280,14.16014383,.0003587,88.9984,0.6423,105.5698,254.5886,0,U,69382,999,356,.45673E-4,.104E-5,0
QIANFAN-166,2026-124B,2026-06-29T12:56:22.623936,14.17061682,.0003032,88.9985,0.6405,101.1454,259.0076,0,U,69383,999,356,.49117E-4,.113E-5,0
QIANFAN-167,2026-124C,2026-06-29T13:03:19.821024,14.16527894,.0003301,88.9984,0.6409,137.5870,222.5574,0,U,69384,999,356,.42471E-4,.99E-6,0
