STARLINK-37593          
1 69355U 26123C   26180.43695347  .00329943  00000+0  16002-2 0  9990
2 69355  53.1529 180.4168 0002433 149.3191 210.7975 15.81033743  3978
STARLINK-37597          
1 69356U 26123D   26180.50003471 -.00010259  00000+0 -62842-4 0  9994
2 69356  53.1586 180.3270 0001069  81.8229 168.3355 15.75236843  5185
STARLINK-37598          
1 69357U 26123E   26180.30679604  .00246396  00000+0  12157-2 0  9993
2 69357  53.1569 181.0262 0001659  35.4835 324.6297 15.80889165  3951
STARLINK-37602          
1 69358U 26123F   26180.29253803  .00156001  00000+0  10029-2 0  9990
2 69358  53.1575 181.6711 0000918 103.5245 256.5877 15.75245365  3941
STARLINK-37600          
1 69359U 26123G   26180.28832418  .00175609  00000+0  11259-2 0  9996
2 69359  53.1568 181.6415 0001388  53.8291 306.2858 15.75243479  3941
STARLINK-37599          
1 69360U 26123H   26180.48607625  .00348518  00000+0  16804-2 0  9992
2 69360  53.1564 180.0052 0002093 169.4499 190.6568 15.81111927  3983
STARLINK-37039          
1 69361U 26123J   26180.51908830  .00141941  00000+0  91335-3 0  9993
2 69361  53.1574 180.2251 0001175 122.7279 237.3855 15.75271754  3982
STARLINK-37040          
1 69362U 26123K   26180.28205263  .00235627  00000+0  11634-2 0  9996
2 69362  53.1562 180.8586 0001429  38.2959 321.8165 15.80904030  3951
STARLINK-37582          
1 69363U 26123L   26180.27924422  .00200764  00000+0  12825-2 0  9998
2 69363  53.1556 181.5790 0000939 107.6207 252.4916 15.75247593  3942
STARLINK-37309          
1 69364U 26123M   26180.29276218  .00223382  00000+0  14171-2 0  9991
2 69364  53.1588 180.9296 0001124 162.7187 197.3872 15.75338601  3958
STARLINK-37436          
1 69365U 26123N   26180.26877025  .00237090  00000+0  11717-2 0  9996
2 69365  53.1564 180.7689 0001045  91.9991 268.1151 15.80880257  3957
STARLINK-37581          
1 69366U 26123P   26180.52540856  .00220152  00000+0  10874-2 0  9999
2 69366  53.1559 179.5253 0001292  63.3276 296.7879 15.80939694  3996
STARLINK-37683          
1 69367U 26123Q   26180.31060635  .00166833  00000+0  10720-2 0  9994
2 69367  53.1567 181.0467 0001261  59.0136 301.1008 15.75221203  3959
STARLINK-37687          
1 69368U 26123R   26180.26430872  .00348533  00000+0  16940-2 0  9992
2 69368  53.1568 180.7391 0000813  56.0182 304.0918 15.80937690  3955
STARLINK-37631          
1 69369U 26123S   26180.50003471  .00035463  00000+0  23481-3 0  9995
2 69369  53.1587 179.6889 0000982  69.9405 129.2684 15.75212798  5198
STARLINK-37673          
1 69370U 26123T   26180.23385983  .00232542  00000+0  14773-2 0  9998
2 69370  53.1587 181.2748 0000749  81.6846 278.4259 15.75277810  3946
STARLINK-37645          
1 69371U 26123U   26180.28368340  .00222908  00000+0  14140-2 0  9995
2 69371  53.1589 180.8677 0001201 165.0490 195.0566 15.75341667  3959
STARLINK-37688          
1 69372U 26123V   26180.50003471  .00018316  00000+0  12348-3 0  9997
2 69372  53.1592 179.6300 0001083  78.6264 148.1619 15.75223155  5196
STARLINK-37685          
1 69373U 26123W   26180.26345921  .00160429  00000+0  79840-3 0  9993
2 69373  53.1567 180.7315 0001137 119.9723 240.1413 15.80952801  3957
STARLINK-37632          
1 69374U 26123X   26180.26272581  .00294376  00000+0  14423-2 0  9999
2 69374  53.1558 180.7262 0001574  33.1082 327.0039 15.80908725  3954
STARLINK-37454          
1 69375U 26123Y   26180.26162549  .00326652  00000+0  15973-2 0  9996
2 69375  53.1564 180.7186 0001223  89.6777 270.4386 15.80864781  3954
STARLINK-37485          
1 69376U 26123Z   26180.27881752  .00301089  00000+0  18812-2 0  9994
2 69376  53.1581 180.8335 0003291 183.1496 176.9504 15.75456541  3953
STARLINK-37439          
1 69377U 26123AA  26180.25376648  .00154153  00000+0  76866-3 0  9998
2 69377  53.1570 180.6648 0000983  84.7478 275.3657 15.80930346  3957
STARLINK-37376          
1 69378U 26123AB  26180.55076360  .00127948  00000+0  82461-3 0  9990
2 69378  53.1590 179.6930 0000982  96.4324 263.6808 15.75284973  3995
STARLINK-37383          
1 69379U 26123AC  26180.50003471 -.00015514  00000+0 -97212-4 0  9997
2 69379  53.1587 179.5249 0001073  78.2456 198.2201 15.75240108  5286
STARLINK-37411          
1 69380U 26123AD  26180.50800648  .00274504  00000+0  13454-2 0  9998
2 69380  53.1568 179.4054 0001327  42.8316 317.2809 15.80955458  3994
STARLINK-37427          
1 69381U 26123AE  26180.25101481  .00207628  00000+0  10272-2 0  9998
2 69381  53.1567 180.6446 0001015 111.4157 248.6974 15.80940418  3959
QIANFAN-165             
1 69382U 26124A   26180.55273770  .00000104  00000+0  45673-4 0  9999
2 69382  88.9984   0.6423 0003587 105.5698 254.5886 14.16014383  3561
QIANFAN-166             
1 69383U 26124B   26180.53915074  .00000113  00000+0  49117-4 0  9995
2 69383  88.9985   0.6405 0003032 101.1454 259.0076 14.17061682  3566
QIANFAN-167             
1 69384U 26124C   26180.54397941  .00000099  00000+0  42471-4 0  9993
2 69384  88.9984   0.6409 0003301 137.5870 222.5574 14.16527894  3563
